OBJECT_NAME,OBJECT_ID,EPOCH,MEAN_MOTION,ECCENTRICITY,INCLINATION,RA_OF_ASC_NODE,ARG_OF_PERICENTER,MEAN_ANOMALY,EPHEMERIS_TYPE,CLASSIFICATION_TYPE,NORAD_CAT_ID,ELEMENT_SET_NO,REV_AT_EPOCH,BSTAR,MEAN_MOTION_DOT,MEAN_MOTION_DDOT
STARLINK-30465,2023-146A,2026-07-05T13:22:05.134368,15.27575271,.0001147,43.0056,8.4607,241.4761,118.5975,0,U,57891,999,15508,.56909E-4,.1304E-4,0
STARLINK-30470,2023-146B,2026-07-05T19:18:23.192640,15.27552548,.00015129,43.0037,6.8761,289.2984,70.7704,0,U,57892,999,15512,-.17207792E-3,-.499E-4,0
STARLINK-30473,2023-146C,2026-07-05T13:49:50.236032,15.27564894,.0001009,43.0024,8.5381,260.7192,99.3545,0,U,57893,999,15508,-.64901E-4,-.2047E-4,0
STARLINK-30443,2023-146D,2026-07-05T21:14:43.358784,15.27559038,.00012604,43.0037,6.6224,291.3212,68.7505,0,U,57894,999,15513,-.20913774E-3,-.6009E-4,0
STARLINK-30467,2023-146E,2026-07-05T22:32:14.089344,15.27562739,.0000906,43.0028,6.1679,231.5192,128.5578,0,U,57895,999,15513,-.83858296E-4,-.2567E-4,0
STARLINK-30469,2023-146F,2026-07-05T21:20:16.404864,15.27559508,.00013351,43.0058,6.6501,272.0777,87.9922,0,U,57896,999,15513,-.16758245E-3,-.4868E-4,0
STARLINK-30474,2023-146G,2026-07-05T21:24:00.071136,15.27541994,.00017905,43.0054,6.6719,261.0902,98.9747,0,U,57897,999,15513,-.20743515E-3,-.5959E-4,0
STARLINK-30479,2023-146H,2026-07-05T12:04:32.714688,15.27590246,.0001742,43.0035,8.9106,257.5050,102.5606,0,U,57898,999,15507,.11599E-3,.2932E-4,0
STARLINK-30481,2023-146J,2026-07-05T13:44:16.446048,15.27557344,.0002491,43.0032,8.5721,276.2380,83.8188,0,U,57899,999,15508,-.26456E-3,-.7531E-4,0
STARLINK-30457,2023-146K,2026-07-05T20:26:51.316512,15.27533049,.00015975,43.0027,7.2198,258.2122,101.8550,0,U,57900,999,15406,-.12949186E-3,-.3819E-4,0
STARLINK-30472,2023-146L,2026-07-05T21:06:11.758464,15.27564835,.00017651,43.0075,3.1638,274.6442,85.4208,0,U,57901,999,15411,-.76292451E-4,-.236E-4,0
STARLINK-30462,2023-146M,2026-07-05T23:20:20.616576,15.27553885,.0001246,43.0027,6.4116,276.0246,84.0464,0,U,57902,999,15510,-.19192283E-3,-.5535E-4,0
STARLINK-30449,2023-146N,2026-07-05T22:39:38.322720,15.27558733,.00010516,43.0038,6.1956,268.7585,91.3146,0,U,57903,999,15408,-.11372759E-3,-.3388E-4,0
STARLINK-30466,2023-146P,2026-07-05T20:17:36.370176,15.27541883,.00014455,43.0029,7.1813,276.8082,83.2605,0,U,57904,999,15406,-.25560757E-3,-.7281E-4,0
STARLINK-30428,2023-146R,2026-07-05T21:55:26.071680,15.27575922,.0001555,43.0030,6.8236,274.1801,85.8873,0,U,57906,999,15407,.3007303E-5,-.179E-5,0
STARLINK-30482,2023-146S,2026-07-05T22:12:06.746112,15.27537184,.00014652,43.0034,6.9143,280.8460,79.2227,0,U,57907,999,15408,-.20040342E-3,-.5765E-4,0
STARLINK-30464,2023-146T,2026-07-05T22:07:41.348640,15.27556632,.00016315,43.0038,10.2850,276.5650,83.5016,0,U,57908,999,15403,-.35830581E-4,-.1247E-4,0
STARLINK-30463,2023-146U,2026-07-05T22:23:13.661664,15.27536090,.0000508,42.9993,6.9655,198.9978,161.0855,0,U,57909,999,15407,-.20719365E-3,-.5951E-4,0
STARLINK-30453,2023-146V,2026-07-05T21:59:52.321056,15.27538547,.00016306,43.0033,3.4478,284.0050,76.0620,0,U,57910,999,15411,-.20058141E-3,-.5771E-4,0
STARLINK-30478,2023-146W,2026-07-05T19:27:38.772288,15.27532794,.00043633,43.0055,6.9137,285.7693,74.2678,0,U,57911,999,15512,-.22295846E-3,-.6386E-4,0
STARLINK-30477,2023-146X,2026-07-05T22:34:48.819648,15.27542116,.00018576,43.0059,2.7681,268.3988,91.6651,0,U,57912,999,15518,-.19237151E-3,-.5546E-4,0
STARLINK-30450,2023-147A,2026-07-05T22:10:00.062112,15.27536570,.00015094,43.0057,17.2104,258.5338,101.5344,0,U,57913,999,15468,-.15298501E-3,-.4464E-4,0
STARLINK-30483,2023-147B,2026-07-06T03:13:01.699680,15.27567181,.00010885,42.9984,230.7175,272.8952,87.1775,0,U,57914,999,15642,-.11276638E-3,-.3362E-4,0
STARLINK-30454,2023-147C,2026-07-05T22:21:06.244992,15.27551354,.00010908,43.0042,17.2647,263.6880,96.3847,0,U,57915,999,15468,-.13722965E-3,-.4033E-4,0
STARLINK-30501,2023-147E,2026-07-05T20:50:37.254336,15.27525949,.00011868,43.0007,17.6484,280.7401,79.3317,0,U,57917,999,15469,.93030391E-3,.25384E-3,0
STARLINK-30499,2023-147F,2026-07-06T02:47:20.211360,15.27567332,.00018584,43.0038,231.4133,271.9715,88.0924,0,U,57918,999,15644,.81579141E-4,.1982E-4,0
STARLINK-30496,2023-147G,2026-07-05T19:33:06.552288,15.27542037,.0001393,43.0001,18.1038,277.1558,82.9136,0,U,57919,999,15469,-.28424876E-3,-.8066E-4,0
STARLINK-30485,2023-147H,2026-07-05T22:46:58.888416,15.27540887,.00016872,43.0017,17.3988,253.2879,106.7788,0,U,57920,999,15471,-.31851531E-3,-.9006E-4,0
STARLINK-30492,2023-147J,2026-07-05T21:22:07.082400,15.27524242,.00013249,43.0002,17.8148,254.7821,105.2884,0,U,57921,999,15467,-.22711225E-3,-.6495E-4,0
STARLINK-30440,2023-147L,2026-07-05T21:49:50.143296,15.27547597,.00015514,43.0044,17.9511,268.8578,91.2096,0,U,57923,999,15470,-.1708814E-3,-.4957E-4,0
