[ {"name": "STARLINK-30465", "line1": "1 57891U 23146A   26186.55700387  .00001304  00000+0  56909-4 0  9994", "line2": "2 57891  43.0056   8.4607 0001147 241.4761 118.5975 15.27575271155080"}, {"name": "STARLINK-30470", "line1": "1 57892U 23146B   26186.80443510 -.00004990  00000+0 -17208-3 0  9999", "line2": "2 57892  43.0037   6.8761 0001512 289.2984  70.7704 15.27552548155122"}, {"name": "STARLINK-30473", "line1": "1 57893U 23146C   26186.57627588 -.00002047  00000+0 -64901-4 0  9997", "line2": "2 57893  43.0024   8.5381 0001009 260.7192  99.3545 15.27564894155084"}, {"name": "STARLINK-30443", "line1": "1 57894U 23146D   26186.88522406 -.00006009  00000+0 -20914-3 0  9992", "line2": "2 57894  43.0037   6.6224 0001260 291.3212  68.7505 15.27559038155132"}, {"name": "STARLINK-30467", "line1": "1 57895U 23146E   26186.93905196 -.00002567  00000+0 -83858-4 0  9992", "line2": "2 57895  43.0028   6.1679 0000906 231.5192 128.5578 15.27562739155138"}, {"name": "STARLINK-30469", "line1": "1 57896U 23146F   26186.88907876 -.00004868  00000+0 -16758-3 0  9994", "line2": "2 57896  43.0058   6.6501 0001335 272.0777  87.9922 15.27559508155138"}, {"name": "STARLINK-30474", "line1": "1 57897U 23146G   26186.89166749 -.00005959  00000+0 -20744-3 0  9994", "line2": "2 57897  43.0054   6.6719 0001790 261.0902  98.9747 15.27541994155136"}, {"name": "STARLINK-30479", "line1": "1 57898U 23146H   26186.50315642  .00002932  00000+0  11599-3 0  9995", "line2": "2 57898  43.0035   8.9106 0001742 257.5050 102.5606 15.27590246155075"}, {"name": "STARLINK-30481", "line1": "1 57899U 23146J   26186.57241257 -.00007531  00000+0 -26456-3 0  9993", "line2": "2 57899  43.0032   8.5721 0002491 276.2380  83.8188 15.27557344155087"}, {"name": "STARLINK-30457", "line1": "1 57900U 23146K   26186.85198283 -.00003819  00000+0 -12949-3 0  9994", "line2": "2 57900  43.0027   7.2198 0001597 258.2122 101.8550 15.27533049154065"}, {"name": "STARLINK-30472", "line1": "1 57901U 23146L   26186.87930276 -.00002360  00000+0 -76292-4 0  9995", "line2": "2 57901  43.0075   3.1638 0001765 274.6442  85.4208 15.27564835154117"}, {"name": "STARLINK-30462", "line1": "1 57902U 23146M   26186.97246084 -.00005535  00000+0 -19192-3 0  9996", "line2": "2 57902  43.0027   6.4116 0001246 276.0246  84.0464 15.27553885155106"}, {"name": "STARLINK-30449", "line1": "1 57903U 23146N   26186.94419355 -.00003388  00000+0 -11373-3 0  9994", "line2": "2 57903  43.0038   6.1956 0001051 268.7585  91.3146 15.27558733154087"}, {"name": "STARLINK-30466", "line1": "1 57904U 23146P   26186.84555984 -.00007281  00000+0 -25561-3 0  9993", "line2": "2 57904  43.0029   7.1813 0001445 276.8082  83.2605 15.27541883154066"}, {"name": "STARLINK-30428", "line1": "1 57906U 23146R   26186.91349620 -.00000179  00000+0  30073-5 0  9995", "line2": "2 57906  43.0030   6.8236 0001555 274.1801  85.8873 15.27575922154074"}, {"name": "STARLINK-30482", "line1": "1 57907U 23146S   26186.92507808 -.00005765  00000+0 -20040-3 0  9999", "line2": "2 57907  43.0034   6.9143 0001465 280.8460  79.2227 15.27537184154081"}, {"name": "STARLINK-30464", "line1": "1 57908U 23146T   26186.92200635 -.00001247  00000+0 -35831-4 0  9994", "line2": "2 57908  43.0038  10.2850 0001631 276.5650  83.5016 15.27556632154035"}, {"name": "STARLINK-30463", "line1": "1 57909U 23146U   26186.93279701 -.00005951  00000+0 -20719-3 0  9990", "line2": "2 57909  42.9993   6.9655 0000508 198.9978 161.0855 15.27536090154074"}, {"name": "STARLINK-30453", "line1": "1 57910U 23146V   26186.91657779 -.00005771  00000+0 -20058-3 0  9991", "line2": "2 57910  43.0033   3.4478 0001630 284.0050  76.0620 15.27538547154112"}, {"name": "STARLINK-30478", "line1": "1 57911U 23146W   26186.81086542 -.00006386  00000+0 -22296-3 0  9994", "line2": "2 57911  43.0055   6.9137 0004363 285.7693  74.2678 15.27532794155127"}, {"name": "STARLINK-30477", "line1": "1 57912U 23146X   26186.94084282 -.00005546  00000+0 -19237-3 0  9996", "line2": "2 57912  43.0059   2.7681 0001857 268.3988  91.6651 15.27542116155188"}, {"name": "STARLINK-30450", "line1": "1 57913U 23147A   26186.92361183 -.00004464  00000+0 -15299-3 0  9996", "line2": "2 57913  43.0057  17.2104 0001509 258.5338 101.5344 15.27536570154683"}, {"name": "STARLINK-30483", "line1": "1 57914U 23147B   26187.13404745 -.00003362  00000+0 -11277-3 0  9991", "line2": "2 57914  42.9984 230.7175 0001088 272.8952  87.1775 15.27567181156427"}, {"name": "STARLINK-30454", "line1": "1 57915U 23147C   26186.93132228 -.00004033  00000+0 -13723-3 0  9997", "line2": "2 57915  43.0042  17.2647 0001090 263.6880  96.3847 15.27551354154681"}, {"name": "STARLINK-30501", "line1": "1 57917U 23147E   26186.86848674  .00025384  00000+0  93030-3 0  9999", "line2": "2 57917  43.0007  17.6484 0001186 280.7401  79.3317 15.27525949154697"}, {"name": "STARLINK-30499", "line1": "1 57918U 23147F   26187.11620615  .00001982  00000+0  81579-4 0  9996", "line2": "2 57918  43.0038 231.4133 0001858 271.9715  88.0924 15.27567332156443"}, {"name": "STARLINK-30496", "line1": "1 57919U 23147G   26186.81465917 -.00008066  00000+0 -28425-3 0  9997", "line2": "2 57919  43.0001  18.1038 0001393 277.1558  82.9136 15.27542037154693"}, {"name": "STARLINK-30485", "line1": "1 57920U 23147H   26186.94929269 -.00009006  00000+0 -31852-3 0  9991", "line2": "2 57920  43.0017  17.3988 0001687 253.2879 106.7788 15.27540887154716"}, {"name": "STARLINK-30492", "line1": "1 57921U 23147J   26186.89035975 -.00006495  00000+0 -22711-3 0  9991", "line2": "2 57921  43.0002  17.8148 0001324 254.7821 105.2884 15.27524242154678"}, {"name": "STARLINK-30440", "line1": "1 57923U 23147L   26186.90960814 -.00004957  00000+0 -17088-3 0  9996", "line2": "2 57923  43.0044  17.9511 0001551 268.8578  91.2096 15.27547597154709"}]